{
  "norad_id": 63754,
  "name": "STARLINK-11662 [DTC]",
  "history": [
    {
      "epoch": "2026-03-28T06:01:02.504352Z",
      "apogee_km": 357.89589140314365,
      "perigee_km": 354.4250344907414,
      "latitude_deg": -7.361841865485698e-06,
      "longitude_deg": -95.47810261208039,
      "height_km": 356.1202442769603,
      "semi_major_axis_km": 6734.297462946943,
      "eccentricity": 0.0002577,
      "inclination_deg": 43.0023,
      "raan_deg": 180.4562,
      "arg_perigee_deg": 263.8395,
      "mean_anomaly_deg": 96.2179,
      "mean_motion_rev_day": 15.70957074
    },
    {
      "epoch": "2026-03-29T04:54:25.954848Z",
      "apogee_km": 358.3108431671699,
      "perigee_km": 353.3371395789418,
      "latitude_deg": -6.392639862481364e-06,
      "longitude_deg": -85.51536479415745,
      "height_km": 354.39592643686655,
      "semi_major_axis_km": 6733.960991373056,
      "eccentricity": 0.0003693,
      "inclination_deg": 43.004,
      "raan_deg": 174.7067,
      "arg_perigee_deg": 298.9149,
      "mean_anomaly_deg": 61.1348,
      "mean_motion_rev_day": 15.71074818
    },
    {
      "epoch": "2026-03-30T05:19:23.831040Z",
      "apogee_km": 357.3800807958032,
      "perigee_km": 355.4836262066565,
      "latitude_deg": -3.58349210339069e-05,
      "longitude_deg": -98.89087896934336,
      "height_km": 356.0452991831429,
      "semi_major_axis_km": 6734.56885350123,
      "eccentricity": 0.0001408,
      "inclination_deg": 43.0009,
      "raan_deg": 168.5751,
      "arg_perigee_deg": 279.6603,
      "mean_anomaly_deg": 80.4105,
      "mean_motion_rev_day": 15.70862115
    },
    {
      "epoch": "2026-03-30T05:19:23.831904Z",
      "apogee_km": 357.37974406735975,
      "perigee_km": 355.48396293509904,
      "latitude_deg": -3.9711547798833936e-05,
      "longitude_deg": -98.89088671289339,
      "height_km": 356.04535568016536,
      "semi_major_axis_km": 6734.56885350123,
      "eccentricity": 0.00014075,
      "inclination_deg": 43.0009,
      "raan_deg": 168.5751,
      "arg_perigee_deg": 279.6603,
      "mean_anomaly_deg": 80.4105,
      "mean_motion_rev_day": 15.70862115
    },
    {
      "epoch": "2026-03-30T14:28:45.676416Z",
      "apogee_km": 357.49423225705686,
      "perigee_km": 355.30200638501447,
      "latitude_deg": 1.4410771087509536e-06,
      "longitude_deg": 121.09381246158378,
      "height_km": 355.9781531912343,
      "semi_major_axis_km": 6734.535119321035,
      "eccentricity": 0.00016276,
      "inclination_deg": 43.0012,
      "raan_deg": 166.2768,
      "arg_perigee_deg": 280.1275,
      "mean_anomaly_deg": 79.9409,
      "mean_motion_rev_day": 15.70873918
    },
    {
      "epoch": "2026-03-31T20:59:58.048224Z",
      "apogee_km": 356.90818319563914,
      "perigee_km": 355.8955779295584,
      "latitude_deg": -3.608739002364126e-05,
      "longitude_deg": 14.372308827194018,
      "height_km": 356.15296587866885,
      "semi_major_axis_km": 6734.538880562598,
      "eccentricity": 7.518e-05,
      "inclination_deg": 43.0004,
      "raan_deg": 158.6103,
      "arg_perigee_deg": 272.3594,
      "mean_anomaly_deg": 87.7187,
      "mean_motion_rev_day": 15.70872602
    },
    {
      "epoch": "2026-04-02T20:18:19.147680Z",
      "apogee_km": 358.46853817403644,
      "perigee_km": 353.7787990444167,
      "latitude_deg": 4.11544442736027e-05,
      "longitude_deg": 10.9625961181921,
      "height_km": 354.55721488391794,
      "semi_major_axis_km": 6734.260668609227,
      "eccentricity": 0.0003482,
      "inclination_deg": 42.9989,
      "raan_deg": 146.7312,
      "arg_perigee_deg": 55.3209,
      "mean_anomaly_deg": 304.7987,
      "mean_motion_rev_day": 15.70969949
    },
    {
      "epoch": "2026-04-02T20:18:19.148544Z",
      "apogee_km": 358.46833614621755,
      "perigee_km": 353.7790010722374,
      "latitude_deg": 4.309266167682969e-05,
      "longitude_deg": 10.962594575224289,
      "height_km": 354.55732981735696,
      "semi_major_axis_km": 6734.260668609227,
      "eccentricity": 0.00034817,
      "inclination_deg": 42.9989,
      "raan_deg": 146.7312,
      "arg_perigee_deg": 55.3209,
      "mean_anomaly_deg": 304.7987,
      "mean_motion_rev_day": 15.70969949
    },
    {
      "epoch": "2026-04-03T10:02:19.367808Z",
      "apogee_km": 356.4934515188579,
      "perigee_km": 356.18285752473275,
      "latitude_deg": -2.693225321821319e-05,
      "longitude_deg": 160.94649591738224,
      "height_km": 356.0024864730981,
      "semi_major_axis_km": 6734.475154521795,
      "eccentricity": 2.306e-05,
      "inclination_deg": 42.9988,
      "raan_deg": 143.2801,
      "arg_perigee_deg": 313.4826,
      "mean_anomaly_deg": 46.6022,
      "mean_motion_rev_day": 15.70894899
    },
    {
      "epoch": "2026-04-04T05:52:37.912800Z",
      "apogee_km": 357.2997708404746,
      "perigee_km": 355.70985660109,
      "latitude_deg": -4.1555612426087576e-05,
      "longitude_deg": -142.427928369529,
      "height_km": 356.47470965137387,
      "semi_major_axis_km": 6734.641813720782,
      "eccentricity": 0.00011804,
      "inclination_deg": 42.9993,
      "raan_deg": 138.2977,
      "arg_perigee_deg": 255.5946,
      "mean_anomaly_deg": 104.479,
      "mean_motion_rev_day": 15.70836588
    },
    {
      "epoch": "2026-04-05T12:23:50.129952Z",
      "apogee_km": 357.831501089001,
      "perigee_km": 354.87519451612206,
      "latitude_deg": -2.6772692179101895e-05,
      "longitude_deg": 110.85366661349029,
      "height_km": 355.68683431548453,
      "semi_major_axis_km": 6734.490347802561,
      "eccentricity": 0.00021949,
      "inclination_deg": 43.0003,
      "raan_deg": 130.6336,
      "arg_perigee_deg": 287.3015,
      "mean_anomaly_deg": 72.7612,
      "mean_motion_rev_day": 15.70889583
    },
    {
      "epoch": "2026-04-06T02:07:50.941920Z",
      "apogee_km": 356.804155713985,
      "perigee_km": 355.29812187862444,
      "latitude_deg": -2.9329872682675926e-06,
      "longitude_deg": -99.16330947342324,
      "height_km": 355.5521374536303,
      "semi_major_axis_km": 6734.188138796304,
      "eccentricity": 0.00011182,
      "inclination_deg": 42.9997,
      "raan_deg": 127.184,
      "arg_perigee_deg": 291.1041,
      "mean_anomaly_deg": 68.9707,
      "mean_motion_rev_day": 15.70995329
    },
    {
      "epoch": "2026-04-07T10:10:36.384672Z",
      "apogee_km": 358.1078793197139,
      "perigee_km": 354.51491641048506,
      "latitude_deg": 3.767942720189888e-06,
      "longitude_deg": 130.78176870634513,
      "height_km": 355.62785114985235,
      "semi_major_axis_km": 6734.4483978651,
      "eccentricity": 0.00026676,
      "inclination_deg": 43.0023,
      "raan_deg": 119.1345,
      "arg_perigee_deg": 284.7439,
      "mean_anomaly_deg": 75.3133,
      "mean_motion_rev_day": 15.70904261
    },
    {
      "epoch": "2026-04-07T17:48:25.174656Z",
      "apogee_km": 356.7396520007296,
      "perigee_km": 356.10660334872864,
      "latitude_deg": 8.059268900069056e-06,
      "longitude_deg": 14.099118772715874,
      "height_km": 355.88036300446157,
      "semi_major_axis_km": 6734.560127674729,
      "eccentricity": 4.7e-05,
      "inclination_deg": 43.0007,
      "raan_deg": 117.2185,
      "arg_perigee_deg": 352.8991,
      "mean_anomaly_deg": 7.187,
      "mean_motion_rev_day": 15.70865168
    },
    {
      "epoch": "2026-04-08T10:35:33.859104Z",
      "apogee_km": 358.00020139756725,
      "perigee_km": 354.6832012580144,
      "latitude_deg": -4.805207313714624e-05,
      "longitude_deg": 117.40780554551456,
      "height_km": 356.32220377702964,
      "semi_major_axis_km": 6734.47870132779,
      "eccentricity": 0.00024627,
      "inclination_deg": 43.0032,
      "raan_deg": 113.0028,
      "arg_perigee_deg": 262.8326,
      "mean_anomaly_deg": 97.2261,
      "mean_motion_rev_day": 15.70893658
    },
    {
      "epoch": "2026-04-09T07:57:23.949216Z",
      "apogee_km": 357.63269016914,
      "perigee_km": 355.3388776489419,
      "latitude_deg": 6.051291613878976e-06,
      "longitude_deg": 150.7067669747037,
      "height_km": 355.9437159043067,
      "semi_major_axis_km": 6734.622783909041,
      "eccentricity": 0.0001703,
      "inclination_deg": 43.0019,
      "raan_deg": 107.6378,
      "arg_perigee_deg": 285.9397,
      "mean_anomaly_deg": 74.1283,
      "mean_motion_rev_day": 15.70843246
    },
    {
      "epoch": "2026-04-10T11:25:28.583328Z",
      "apogee_km": 357.1776808430186,
      "perigee_km": 355.593721103749,
      "latitude_deg": -4.360888138784835e-07,
      "longitude_deg": 90.66067939398184,
      "height_km": 356.4284429048539,
      "semi_major_axis_km": 6734.5227009733835,
      "eccentricity": 0.0001176,
      "inclination_deg": 42.9998,
      "raan_deg": 100.7391,
      "arg_perigee_deg": 250.0201,
      "mean_anomaly_deg": 110.054,
      "mean_motion_rev_day": 15.70878263
    },
    {
      "epoch": "2026-04-11T08:47:18.943008Z",
      "apogee_km": 357.7205819220135,
      "perigee_km": 355.17894887675084,
      "latitude_deg": -2.869225653984486e-07,
      "longitude_deg": 123.95895788978775,
      "height_km": 355.866076824761,
      "semi_major_axis_km": 6734.586765399382,
      "eccentricity": 0.0001887,
      "inclination_deg": 43.0014,
      "raan_deg": 95.3746,
      "arg_perigee_deg": 286.3,
      "mean_anomaly_deg": 73.766,
      "mean_motion_rev_day": 15.70855848
    },
    {
      "epoch": "2026-04-12T22:56:18.902112Z",
      "apogee_km": 356.4441121868549,
      "perigee_km": 356.10200415590043,
      "latitude_deg": -1.8616524205961821e-06,
      "longitude_deg": -99.43783922440645,
      "height_km": 356.1953150456299,
      "semi_major_axis_km": 6734.410058171377,
      "eccentricity": 2.54e-05,
      "inclination_deg": 42.9977,
      "raan_deg": 85.7944,
      "arg_perigee_deg": 207.8247,
      "mean_anomaly_deg": 152.2607,
      "mean_motion_rev_day": 15.70917676
    },
    {
      "epoch": "2026-04-14T14:36:52.240608Z",
      "apogee_km": 356.9113499512732,
      "perigee_km": 355.9846710538277,
      "latitude_deg": 2.3254483696186797e-05,
      "longitude_deg": 13.825246204097326,
      "height_km": 356.00615886328706,
      "semi_major_axis_km": 6734.58501050255,
      "eccentricity": 6.88e-05,
      "inclination_deg": 43.0027,
      "raan_deg": 75.8258,
      "arg_perigee_deg": 297.4982,
      "mean_anomaly_deg": 62.5816,
      "mean_motion_rev_day": 15.70856462
    },
    {
      "epoch": "2026-04-15T04:20:54.029760Z",
      "apogee_km": 358.5538973824796,
      "perigee_km": 354.2771871360437,
      "latitude_deg": -1.5117884888989467e-05,
      "longitude_deg": 163.80362307252477,
      "height_km": 356.3773455993565,
      "semi_major_axis_km": 6734.552542259261,
      "eccentricity": 0.00031752,
      "inclination_deg": 43.0019,
      "raan_deg": 72.3757,
      "arg_perigee_deg": 264.9585,
      "mean_anomaly_deg": 95.092,
      "mean_motion_rev_day": 15.70867822
    },
    {
      "epoch": "2026-04-16T13:55:12.609984Z",
      "apogee_km": 358.0763188566316,
      "perigee_km": 354.52323001443983,
      "latitude_deg": -4.710854694494993e-05,
      "longitude_deg": 10.41582812360295,
      "height_km": 355.9925058655969,
      "semi_major_axis_km": 6734.436774435536,
      "eccentricity": 0.0002638,
      "inclination_deg": 43.004,
      "raan_deg": 63.9441,
      "arg_perigee_deg": 272.6166,
      "mean_anomaly_deg": 87.4399,
      "mean_motion_rev_day": 15.70908328
    }
  ]
}